start=new Date('2021-08-25T00:00:00.000Z').valueOf();
sats=[{"APOAPSIS":"548.715","TLE_LINE2":"2 47771  53.0553  88.7575 0002115  85.4688 274.6542 15.06388169 27968","PERIAPSIS":"545.785","PERIOD":"95.593","EPOCH":"2021-08-24T21:20:31.841952","ELEMENT_SET_NO":"999","RA_OF_ASC_NODE":"88.7575","MEAN_MOTION_DDOT":"0.0000000000000","OBJECT_NAME":"STARLINK-2194","COUNTRY_CODE":"US","BSTAR":"-0.00006808500000","SITE":"AFETR","RCS_SIZE":"LARGE","REV_AT_EPOCH":"2796","OBJECT_TYPE":"PAYLOAD","ECCENTRICITY":"0.00021150","DECAY_DATE":null,"MEAN_MOTION":"15.06388169","CLASSIFICATION_TYPE":"U","GP_ID":"183386052","SEMIMAJOR_AXIS":"6925.385","INCLINATION":"53.0553","TIME_SYSTEM":"UTC","OBJECT_ID":"2021-017BB","FILE":"3102580","NORAD_CAT_ID":"47771","MEAN_MOTION_DOT":"-0.00001295","ARG_OF_PERICENTER":"85.4688","TLE_LINE1":"1 47771U 21017BB  21236.88925743 -.00001295  00000-0 -68085-4 0  9997","REF_FRAME":"TEME","CENTER_NAME":"EARTH","LAUNCH_DATE":"2021-03-04","MEAN_ANOMALY":"274.6542","MEAN_ELEMENT_THEORY":"SGP4","EPHEMERIS_TYPE":"0"},{"EPHEMERIS_TYPE":"0","MEAN_ELEMENT_THEORY":"SGP4","REF_FRAME":"TEME","TLE_LINE1":"1 47772U 21017BC  21236.94499112  .00000608  00000-0  59736-4 0  9999","ARG_OF_PERICENTER":"108.4360","MEAN_ANOMALY":"251.6796","CENTER_NAME":"EARTH","LAUNCH_DATE":"2021-03-04","INCLINATION":"53.0548","TIME_SYSTEM":"UTC","GP_ID":"183386802","SEMIMAJOR_AXIS":"6925.349","CLASSIFICATION_TYPE":"U","MEAN_MOTION_DOT":"0.00000608","NORAD_CAT_ID":"47772","FILE":"3102580","OBJECT_ID":"2021-017BC","OBJECT_TYPE":"PAYLOAD","ECCENTRICITY":"0.00015340","RCS_SIZE":"LARGE","REV_AT_EPOCH":"2773","SITE":"AFETR","BSTAR":"0.00005973600000","MEAN_MOTION":"15.06399723","DECAY_DATE":null,"COUNTRY_CODE":"US","OBJECT_NAME":"STARLINK-2195","MEAN_MOTION_DDOT":"0.0000000000000","RA_OF_ASC_NODE":"103.5134","PERIOD":"95.592","ELEMENT_SET_NO":"999","EPOCH":"2021-08-24T22:40:47.232768","TLE_LINE2":"2 47772  53.0548 103.5134 0001534 108.4360 251.6796 15.06399723 27736","APOAPSIS":"548.277","PERIAPSIS":"546.152"},{"TLE_LINE1":"1 47773U 21017BD  21236.94132316  .00000559  00000-0  56439-4 0  9992","ARG_OF_PERICENTER":"69.7597","REF_FRAME":"TEME","CENTER_NAME":"EARTH","LAUNCH_DATE":"2021-03-04","MEAN_ANOMALY":"290.3613","MEAN_ELEMENT_THEORY":"SGP4","EPHEMERIS_TYPE":"0","SITE":"AFETR","BSTAR":"0.00005643900000","OBJECT_TYPE":"PAYLOAD","ECCENTRICITY":"0.00020560","RCS_SIZE":"LARGE","REV_AT_EPOCH":"2772","MEAN_MOTION":"15.06389224","DECAY_DATE":null,"SEMIMAJOR_AXIS":"6925.382","GP_ID":"183387054","CLASSIFICATION_TYPE":"U","TIME_SYSTEM":"UTC","INCLINATION":"53.0548","FILE":"3102580","OBJECT_ID":"2021-017BD","NORAD_CAT_ID":"47773","MEAN_MOTION_DOT":"0.00000559","OBJECT_NAME":"STARLINK-2196","MEAN_MOTION_DDOT":"0.0000000000000","COUNTRY_CODE":"US","TLE_LINE2":"2 47773  53.0548 103.5343 0002056  69.7597 290.3613 15.06389224 27722","APOAPSIS":"548.670","PERIAPSIS":"545.823","PERIOD":"95.593","ELEMENT_SET_NO":"999","EPOCH":"2021-08-24T22:35:30.321024","RA_OF_ASC_NODE":"103.5343"},{"OBJECT_NAME":"STARLINK-2197","MEAN_MOTION_DDOT":"0.0000000000000","COUNTRY_CODE":"US","PERIAPSIS":"545.532","TLE_LINE2":"2 47774  53.0549 103.5466 0002446  74.6127 285.5132 15.06395862 27735","APOAPSIS":"548.920","RA_OF_ASC_NODE":"103.5466","PERIOD":"95.592","EPOCH":"2021-08-24T22:30:11.658816","ELEMENT_SET_NO":"999","MEAN_ANOMALY":"285.5132","CENTER_NAME":"EARTH","LAUNCH_DATE":"2021-03-04","REF_FRAME":"TEME","TLE_LINE1":"1 47774U 21017BE  21236.93763494 -.00000698  00000-0 -27959-4 0  9990","ARG_OF_PERICENTER":"74.6127","EPHEMERIS_TYPE":"0","MEAN_ELEMENT_THEORY":"SGP4","MEAN_MOTION":"15.06395862","DECAY_DATE":null,"OBJECT_TYPE":"PAYLOAD","ECCENTRICITY":"0.00024460","REV_AT_EPOCH":"2773","RCS_SIZE":"LARGE","SITE":"AFETR","BSTAR":"-0.00002795900000","NORAD_CAT_ID":"47774","MEAN_MOTION_DOT":"-0.00000698","FILE":"3102580","OBJECT_ID":"2021-017BE","INCLINATION":"53.0549","TIME_SYSTEM":"UTC","GP_ID":"183387804","SEMIMAJOR_AXIS":"6925.361","CLASSIFICATION_TYPE":"U"},{"EPOCH":"2021-08-24T21:10:34.425696","PERIOD":"95.593","ELEMENT_SET_NO":"999","RA_OF_ASC_NODE":"103.8109","TLE_LINE2":"2 47775  53.0555 103.8109 0002305  78.8640 281.2608 15.06393325 27777","APOAPSIS":"548.830","PERIAPSIS":"545.638","COUNTRY_CODE":"US","MEAN_MOTION_DDOT":"0.0000000000000","OBJECT_NAME":"STARLINK-2198","SEMIMAJOR_AXIS":"6925.369","GP_ID":"183386552","CLASSIFICATION_TYPE":"U","INCLINATION":"53.0555","TIME_SYSTEM":"UTC","FILE":"3102580","OBJECT_ID":"2021-017BF","MEAN_MOTION_DOT":"0.00000564","NORAD_CAT_ID":"47775","SITE":"AFETR","BSTAR":"0.00005677500000","ECCENTRICITY":"0.00023050","OBJECT_TYPE":"PAYLOAD","REV_AT_EPOCH":"2777","RCS_SIZE":"LARGE","MEAN_MOTION":"15.06393325","DECAY_DATE":null,"MEAN_ELEMENT_THEORY":"SGP4","EPHEMERIS_TYPE":"0","TLE_LINE1":"1 47775U 21017BF  21236.88234289  .00000564  00000-0  56775-4 0  9998","ARG_OF_PERICENTER":"78.8640","REF_FRAME":"TEME","LAUNCH_DATE":"2021-03-04","CENTER_NAME":"EARTH","MEAN_ANOMALY":"281.2608"},{"MEAN_ELEMENT_THEORY":"SGP4","EPHEMERIS_TYPE":"0","ARG_OF_PERICENTER":"69.3234","TLE_LINE1":"1 47776U 21017BG  21236.90906102 -.00001226  00000-0 -63389-4 0  9999","REF_FRAME":"TEME","CENTER_NAME":"EARTH","LAUNCH_DATE":"2021-03-04","MEAN_ANOMALY":"290.7985","CLASSIFICATION_TYPE":"U","GP_ID":"183386303","SEMIMAJOR_AXIS":"6925.355","TIME_SYSTEM":"UTC","INCLINATION":"53.0557","OBJECT_ID":"2021-017BG","FILE":"3102580","MEAN_MOTION_DOT":"-0.00001226","NORAD_CAT_ID":"47776","BSTAR":"-0.00006338900000","SITE":"AFETR","REV_AT_EPOCH":"2788","RCS_SIZE":"LARGE","OBJECT_TYPE":"PAYLOAD","ECCENTRICITY":"0.00021460","DECAY_DATE":null,"MEAN_MOTION":"15.06397805","COUNTRY_CODE":"US","MEAN_MOTION_DDOT":"0.0000000000000","OBJECT_NAME":"STARLINK-2209","PERIOD":"95.592","EPOCH":"2021-08-24T21:49:02.872128","ELEMENT_SET_NO":"999","RA_OF_ASC_NODE":"93.6805","APOAPSIS":"548.706","TLE_LINE2":"2 47776  53.0557  93.6805 0002146  69.3234 290.7985 15.06397805 27888","PERIAPSIS":"545.734"},{"EPHEMERIS_TYPE":"0","MEAN_ELEMENT_THEORY":"SGP4","MEAN_ANOMALY":"282.4545","LAUNCH_DATE":"2021-03-04","CENTER_NAME":"EARTH","REF_FRAME":"TEME","TLE_LINE1":"1 47777U 21017BH  21236.91275664 -.00001232  00000-0 -63794-4 0  9990","ARG_OF_PERICENTER":"77.6697","MEAN_MOTION_DOT":"-0.00001232","NORAD_CAT_ID":"47777","FILE":"3102580","OBJECT_ID":"2021-017BH","TIME_SYSTEM":"UTC","INCLINATION":"53.0564","GP_ID":"183387554","SEMIMAJOR_AXIS":"6925.381","CLASSIFICATION_TYPE":"U","MEAN_MOTION":"15.06389522","DECAY_DATE":null,"OBJECT_TYPE":"PAYLOAD","ECCENTRICITY":"0.00022600","REV_AT_EPOCH":"2788","RCS_SIZE":"LARGE","SITE":"AFETR","BSTAR":"-0.00006379400000","COUNTRY_CODE":"US","MEAN_MOTION_DDOT":"0.0000000000000","OBJECT_NAME":"STARLINK-2210","RA_OF_ASC_NODE":"93.6670","ELEMENT_SET_NO":"999","PERIOD":"95.593","EPOCH":"2021-08-24T21:54:22.173696","PERIAPSIS":"545.681","TLE_LINE2":"2 47777  53.0564  93.6670 0002260  77.6697 282.4545 15.06389522 27886","APOAPSIS":"548.811"},{"RA_OF_ASC_NODE":"93.9663","PERIOD":"95.645","ELEMENT_SET_NO":"999","EPOCH":"2021-08-24T21:03:07.781760","TLE_LINE2":"2 47778  53.0563  93.9663 0002100  91.9285 268.1944 15.05574695 27875","APOAPSIS":"551.199","PERIAPSIS":"548.289","COUNTRY_CODE":"US","MEAN_MOTION_DDOT":"0.0000000000000","OBJECT_NAME":"STARLINK-2211","TIME_SYSTEM":"UTC","INCLINATION":"53.0563","GP_ID":"183387305","SEMIMAJOR_AXIS":"6927.879","CLASSIFICATION_TYPE":"U","MEAN_MOTION_DOT":"0.00000521","NORAD_CAT_ID":"47778","FILE":"3102580","OBJECT_ID":"2021-017BJ","OBJECT_TYPE":"PAYLOAD","ECCENTRICITY":"0.00021000","RCS_SIZE":"LARGE","REV_AT_EPOCH":"2787","SITE":"AFETR","BSTAR":"0.00005491400000","MEAN_MOTION":"15.05574695","DECAY_DATE":null,"EPHEMERIS_TYPE":"0","MEAN_ELEMENT_THEORY":"SGP4","REF_FRAME":"TEME","TLE_LINE1":"1 47778U 21017BJ  21236.87717340  .00000521  00000-0  54914-4 0  9990","ARG_OF_PERICENTER":"91.9285","MEAN_ANOMALY":"268.1944","CENTER_NAME":"EARTH","LAUNCH_DATE":"2021-03-04"},{"RA_OF_ASC_NODE":"93.7413","ELEMENT_SET_NO":"999","PERIOD":"95.592","EPOCH":"2021-08-24T21:27:49.343904","PERIAPSIS":"545.843","APOAPSIS":"548.611","TLE_LINE2":"2 47779  53.0561  93.7413 0001998  72.3326 287.7881 15.06395589 27880","COUNTRY_CODE":"US","OBJECT_NAME":"STARLINK-2212","MEAN_MOTION_DDOT":"0.0000000000000","MEAN_MOTION_DOT":"-0.00001316","NORAD_CAT_ID":"47779","OBJECT_ID":"2021-017BK","FILE":"3102580","TIME_SYSTEM":"UTC","INCLINATION":"53.0561","CLASSIFICATION_TYPE":"U","SEMIMAJOR_AXIS":"6925.362","GP_ID":"183386053","DECAY_DATE":null,"MEAN_MOTION":"15.06395589","REV_AT_EPOCH":"2788","RCS_SIZE":"LARGE","OBJECT_TYPE":"PAYLOAD","ECCENTRICITY":"0.00019980","BSTAR":"-0.00006943800000","SITE":"AFETR","EPHEMERIS_TYPE":"0","MEAN_ELEMENT_THEORY":"SGP4","MEAN_ANOMALY":"287.7881","CENTER_NAME":"EARTH","LAUNCH_DATE":"2021-03-04","REF_FRAME":"TEME","ARG_OF_PERICENTER":"72.3326","TLE_LINE1":"1 47779U 21017BK  21236.89432111 -.00001316  00000-0 -69438-4 0  9995"},{"PERIOD":"95.593","ELEMENT_SET_NO":"999","EPOCH":"2021-08-24T21:31:46.192224","RA_OF_ASC_NODE":"93.7325","APOAPSIS":"548.726","TLE_LINE2":"2 47780  53.0558  93.7325 0002138  80.6473 279.4757 15.06389674 27914","PERIAPSIS":"545.765","COUNTRY_CODE":"US","MEAN_MOTION_DDOT":"0.0000000000000","OBJECT_NAME":"STARLINK-2213","CLASSIFICATION_TYPE":"U","GP_ID":"183386803","SEMIMAJOR_AXIS":"6925.380","TIME_SYSTEM":"UTC","INCLINATION":"53.0558","OBJECT_ID":"2021-017BL","FILE":"3102580","NORAD_CAT_ID":"47780","MEAN_MOTION_DOT":"0.00000392","BSTAR":"0.00004521200000","SITE":"AFETR","REV_AT_EPOCH":"2791","RCS_SIZE":"LARGE","OBJECT_TYPE":"PAYLOAD","ECCENTRICITY":"0.00021380","DECAY_DATE":null,"MEAN_MOTION":"15.06389674","MEAN_ELEMENT_THEORY":"SGP4","EPHEMERIS_TYPE":"0","ARG_OF_PERICENTER":"80.6473","TLE_LINE1":"1 47780U 21017BL  21236.89706241  .00000392  00000-0  45212-4 0  9990","REF_FRAME":"TEME","LAUNCH_DATE":"2021-03-04","CENTER_NAME":"EARTH","MEAN_ANOMALY":"279.4757"}];
